0 CZ-3B R/B
1 60328U 24135B   24274.26417390  .00138938  13758-5  26182-2 0  9997
2 60328  26.8035 121.5631 7111781 220.1983  56.2639  2.54828302  1472
0 CZ-3B R/B
1 60328U 24135B   24274.65599268  .00140941  12802-5  26626-2 0  9994
2 60328  26.8039 121.3891 7110817 220.4863  55.8052  2.54950136  1487
0 CZ-3B R/B
1 60328U 24135B   24276.61259597  .00131382  58917-6  24548-2 0  9998
2 60328  26.8070 120.5369 7106642 221.9097  53.5932  2.55507485  1533
0 CZ-3B R/B
1 60328U 24135B   24276.61259597  .00131382  58917-6  24548-2 0  9998
2 60328  26.8070 120.5369 7106642 221.9097  53.5932  2.55507485  1533
0 CZ-3B R/B
1 60328U 24135B   24277.00342800  .00121097  42802-6  22619-2 0  9997
2 60328  26.8076 120.3655 7105882 222.1965  53.1588  2.55606615  1546
0 CZ-3B R/B
1 60328U 24135B   24277.78466560  .00126186  10990-6  23745-2 0  9990
2 60328  26.8078 120.0242 7104286 222.7671  52.3095  2.55803032  1562
0 CZ-3B R/B
1 60328U 24135B   24277.78466560  .00126186  10990-6  23745-2 0  9990
2 60328  26.8078 120.0242 7104286 222.7671  52.3095  2.55803032  1562
0 CZ-3B R/B
1 60328U 24135B   24278.56531250  .00120526 -17588-6  22329-2 0  9996
2 60328  26.8056 119.6827 7102943 223.3357  51.4737  2.55998832  1585
0 CZ-3B R/B
1 60328U 24135B   24278.56531250  .00120526 -17588-6  22329-2 0  9996
2 60328  26.8056 119.6827 7102943 223.3357  51.4737  2.55998832  1585
0 CZ-3B R/B
1 60328U 24135B   24279.34539574  .00125087 -39624-6  23303-2 0  9995
2 60328  26.8048 119.3409 7101431 223.9084  50.6522  2.56188318  1600
0 CZ-3B R/B
1 60328U 24135B   24280.12493820  .00108571 -52053-6  20051-2 0  9993
2 60328  26.8076 118.9998 7100197 224.4773  49.8468  2.56361537  1625
0 CZ-3B R/B
1 60328U 24135B   24280.12493820  .00108571 -52053-6  20051-2 0  9993
2 60328  26.8076 118.9998 7100197 224.4773  49.8468  2.56361537  1625
0 CZ-3B R/B
1 60328U 24135B   24281.68244906  .00115905 -40054-6  20957-2 0  9996
2 60328  26.8051 118.3182 7097675 225.6174  48.2805  2.56725032  1667
0 CZ-3B R/B
1 60328U 24135B   24282.07149033  .00142533 -29128-6  25613-2 0  9995
2 60328  26.8069 118.1480 7096976 225.9043  47.8975  2.56826760  1670
0 CZ-3B R/B
1 60328U 24135B   24282.07149033  .00142533 -29128-6  25613-2 0  9995
2 60328  26.8069 118.1480 7096976 225.9043  47.8975  2.56826760  1670
0 CZ-3B R/B
1 60328U 24135B   24283.23775590  .00110204  18622-6  19738-2 0  9994
2 60328  26.8057 117.6351 7095009 226.7623  46.7744  2.57095134  1707
0 CZ-3B R/B
1 60328U 24135B   24283.23775590  .00110204  18622-6  19738-2 0  9994
2 60328  26.8057 117.6351 7095009 226.7623  46.7744  2.57095134  1707
0 CZ-3B R/B
1 60328U 24135B   24284.01464966  .00114648  57289-6  20595-2 0  9994
2 60328  26.8066 117.2943 7093810 227.3306  46.0485  2.57252144  1726
0 CZ-3B R/B
1 60328U 24135B   24284.01464966  .00114648  57289-6  20595-2 0  9994
2 60328  26.8066 117.2943 7093810 227.3306  46.0485  2.57252144  1726
0 CZ-3B R/B
1 60328U 24135B   24284.79108007  .00110471  94581-6  20021-2 0  9990
2 60328  26.8087 116.9523 7092478 227.9033  45.3351  2.57418741  1744
0 CZ-3B R/B
1 60328U 24135B   24284.79108007  .00110471  94581-6  20021-2 0  9990
2 60328  26.8087 116.9523 7092478 227.9033  45.3351  2.57418741  1744
0 CZ-3B R/B
1 60328U 24135B   24285.56701296  .00116301  12417-5  20788-2 0  9990
2 60328  26.8077 116.6099 7091270 228.4736  44.6370  2.57598488  1765
0 CZ-3B R/B
1 60328U 24135B   24285.95478085  .00111630  13432-5  19693-2 0  9991
2 60328  26.8079 116.4392 7090841 228.7572  44.2928  2.57674266  1770
0 CZ-3B R/B
1 60328U 24135B   24285.95478085  .00111630  13432-5  19693-2 0  9991
2 60328  26.8079 116.4392 7090841 228.7572  44.2928  2.57674266  1770
0 CZ-3B R/B
1 60328U 24135B   24286.72999140  .00099900  14281-5  17682-2 0  9991
2 60328  26.8086 116.0960 7089652 229.3314  43.6127  2.57828033  1793
0 CZ-3B R/B
1 60328U 24135B   24287.11744113  .00100187  14062-5  17562-2 0  9997
2 60328  26.8096 115.9259 7089262 229.6156  43.2771  2.57892032  1800
0 CZ-3B R/B
1 60328U 24135B   24287.11744113  .00100187  14062-5  17562-2 0  9997
2 60328  26.8096 115.9259 7089262 229.6156  43.2771  2.57892032  1800
0 CZ-3B R/B
1 60328U 24135B   24287.89204279  .00092055  12346-5  16162-2 0  9998
2 60328  26.8101 115.5846 7088188 230.1885  42.6169  2.58029890  1828
0 CZ-3B R/B
1 60328U 24135B   24288.27919021  .00102141  10910-5  17787-2 0  9996
2 60328  26.8133 115.4126 7087712 230.4775  42.2877  2.58100644  1847
0 CZ-3B R/B
1 60328U 24135B   24288.27919021  .00102141  10910-5  17787-2 0  9996
2 60328  26.8133 115.4126 7087712 230.4775  42.2877  2.58100644  1825
0 CZ-3B R/B
1 60328U 24135B   24288.66623570  .00093964  91593-6  16265-2 0  9999
2 60328  26.8139 115.2417 7087197 230.7619  41.9677  2.58175457  1849
0 CZ-3B R/B
1 60328U 24135B   24288.66623570  .00093964  91593-6  16265-2 0  9999
2 60328  26.8139 115.2417 7087197 230.7619  41.9677  2.58175457  1849
0 CZ-3B R/B
1 60328U 24135B   24290.59989521  .00088110 -16027-6  14881-2 0  9994
2 60328  26.8172 114.3862 7084686 232.1963  40.3958  2.58527533  1894
0 CZ-3B R/B
1 60328U 24135B   24290.59989521  .00088110 -16027-6  14881-2 0  9994
2 60328  26.8172 114.3862 7084686 232.1963  40.3958  2.58527533  1894
0 CZ-3B R/B
1 60328U 24135B   24292.53090637  .00085703 -84533-6  14196-2 0  9992
2 60328  26.8168 113.5270 7082005 233.6347  38.8901  2.58900682  1944
0 CZ-3B R/B
1 60328U 24135B   24292.53090637  .00085703 -84533-6  14196-2 0  9992
2 60328  26.8168 113.5270 7082005 233.6347  38.8901  2.58900682  1944
0 CZ-3B R/B
1 60328U 24135B   24292.91678757  .00097129 -87671-6  15999-2 0  9992
2 60328  26.8170 113.3472 7081556 233.9271  38.5908  2.58968836  1958
0 CZ-3B R/B
1 60328U 24135B   24292.91678757  .00097129 -87671-6  15999-2 0  9992
2 60328  26.8170 113.3472 7081556 233.9271  38.5908  2.58968836  1958
0 CZ-3B R/B
1 60328U 24135B   24294.07381255  .00101074 -75145-6  16545-2 0  9991
2 60328  26.8294 112.8265 7080004 234.7923  37.7247  2.59185012  1987
0 CZ-3B R/B
1 60328U 24135B   24294.45929438  .00103092 -64650-6  16983-2 0  9991
2 60328  26.8235 112.6686 7079442 235.0697  37.4532  2.59252039  1992
0 CZ-3B R/B
1 60328U 24135B   24294.45929438  .00103092 -64650-6  16983-2 0  9991
2 60328  26.8235 112.6686 7079442 235.0697  37.4532  2.59252039  1992
0 CZ-3B R/B
1 60328U 24135B   24297.15464393  .00096149  47170-6  15458-2 0  9992
2 60328  26.8053 111.4793 7075808 237.0569  35.5816  2.59778482  2066
0 CZ-3B R/B
1 60328U 24135B   24297.15464393  .00096149  47170-6  15458-2 0  9992
2 60328  26.8053 111.4793 7075808 237.0569  35.5816  2.59778482  2066
0 CZ-3B R/B
1 60328U 24135B   24298.69232865  .00125344  99096-6  19611-2 0  9998
2 60328  26.8112 110.7913 7073396 238.2088  34.5640  2.60136104  2107
0 CZ-3B R/B
1 60328U 24135B   24300.22798470  .00108571  11947-5  16720-2 0  9999
2 60328  26.8170 110.1017 7071133 239.3633  33.5851  2.60459248  2149
0 CZ-3B R/B
1 60328U 24135B   24300.61161202  .00125082  11910-5  18641-2 0  9999
2 60328  26.8139 109.9310 7070746 239.6438  33.3512  2.60552476  2151
0 CZ-3B R/B
1 60328U 24135B   24300.61161202  .00125082  11910-5  18641-2 0  9999
2 60328  26.8139 109.9310 7070746 239.6438  33.3512  2.60552476  2151
0 CZ-3B R/B
1 60328U 24135B   24300.99510145  .00120286  11662-5  18011-2 0  9990
2 60328  26.8205 109.7616 7069931 239.9263  33.1237  2.60653929  2163
0 CZ-3B R/B
1 60328U 24135B   24301.76164032  .00109235  10576-5  16415-2 0  9996
2 60328  26.8123 109.4218 7068424 240.4970  32.6687  2.60847986  2188
0 CZ-3B R/B
1 60328U 24135B   24301.76164032  .00109235  10576-5  16415-2 0  9996
2 60328  26.8123 109.4218 7068424 240.4970  32.6687  2.60847986  2188
0 CZ-3B R/B
1 60328U 24135B   24302.52764166  .00119144  87881-6  17656-2 0  9997
2 60328  26.8149 109.0750 7067211 241.0725  32.2144  2.61024293  2207
0 CZ-3B R/B
1 60328U 24135B   24302.52764166  .00119144  87881-6  17656-2 0  9997
2 60328  26.8149 109.0750 7067211 241.0725  32.2144  2.61024293  2207
0 CZ-3B R/B
1 60328U 24135B   24302.91043634  .00117438  76716-6  17047-2 0  9993
2 60328  26.8235 108.8973 7066750 241.3668  31.9829  2.61111855  2211
0 CZ-3B R/B
1 60328U 24135B   24302.91043634  .00117438  76716-6  17047-2 0  9993
2 60328  26.8235 108.8973 7066750 241.3668  31.9829  2.61111855  2211
0 CZ-3B R/B
1 60328U 24135B   24305.58679977  .00097018 -20537-6  13710-2 0  9999
2 60328  26.8087 107.6953 7062803 243.3726  30.4698  2.61660734  2283
0 CZ-3B R/B
1 60328U 24135B   24305.58679977  .00097018 -20537-6  13710-2 0  9999
2 60328  26.8087 107.6953 7062803 243.3726  30.4698  2.61660734  2283
0 CZ-3B R/B
1 60328U 24135B   24307.87696544  .00081734 -73899-6  11197-2 0  9996
2 60328  26.8216 106.6632 7060342 245.0963  29.2247  2.62022424  2340
0 CZ-3B R/B
1 60328U 24135B   24307.87696544  .00081734 -73899-6  11197-2 0  9996
2 60328  26.8216 106.6632 7060342 245.0963  29.2247  2.62022424  2340
0 CZ-3B R/B
1 60328U 24135B   24309.02095042  .00078583 -68125-6  10601-2 0  9994
2 60328  26.8170 106.1533 7059290 245.9483  28.6285  2.62183811  2376
0 CZ-3B R/B
1 60328U 24135B   24309.02095042  .00078583 -68125-6  10601-2 0  9994
2 60328  26.8170 106.1533 7059290 245.9483  28.6285  2.62183811  2376
0 CZ-3B R/B
1 60328U 24135B   24310.54515778  .00077554 -22811-6  10259-2 0  9994
2 60328  26.8011 105.4649 7057772 247.0957  27.8515  2.62403942  2414
0 CZ-3B R/B
1 60328U 24135B   24310.54515778  .00077554 -22811-6  10259-2 0  9994
2 60328  26.8011 105.4649 7057772 247.0957  27.8515  2.62403942  2414
0 CZ-3B R/B
1 60328U 24135B   24318.52791732  .00064576 -49806-6  63802-3 0  9992
2 60328  26.8897 101.8473 7051197 253.1331  24.2081  2.63467322  2625
0 CZ-3B R/B
1 60328U 24135B   25035.16618353  .00420618  18846-6  44331-3 0  9994
2 60328  26.8797  62.5281 6897642 318.4635   5.8772  2.86376884  4865
0 CZ-3B R/B
1 60328U 24135B   25039.67645867  .00383970 -53914-6  42603-3 0  9999
2 60328  26.8860  60.2070 6871310 322.3394   5.3095  2.89938206  4999
